id,name,brewery_type,street,city,state,postal_code,country,longitude,latitude,phone,website_url
5128df48-79fc-4f0f-8b52-d06be54d0cec,(405) Brewing Co,micro,1716 Topeka St,Norman,Oklahoma,73069-8224,United States,-97.46818222,35.25738891,4058160490,http://www.405brewing.com
9c5a66c8-cc13-416f-a5d9-0a769c87d318,(512) Brewing Co,micro,407 Radam Ln Ste F200,Austin,Texas,78745-1197,United States,,,5129211545,http://www.512brewing.com
34e8c68b-6146-453f-a4b9-1f6cd99a5ada,1 of Us Brewing Company,micro,8100 Washington Ave,Mount Pleasant,Wisconsin,53406-3920,United States,-87.883363502094,42.720108268996,2624847553,https://www.1ofusbrewing.com
6d14b220-8926-4521-8d19-b98a2d6ec3db,10 Barrel Brewing Co,large,62970 18th St,Bend,Oregon,97701-9847,United States,-121.281706,44.08683531,5415851007,http://www.10barrel.com
e2e78bd8-80ff-4a61-a65c-3bfbd9d76ce2,10 Barrel Brewing Co,large,1135 NW Galveston Ave Ste B,Bend,Oregon,97703-2465,United States,-121.3288021,44.0575649,5415851007,
e432899b-7f58-455f-9c7b-9a6e2130a1e0,10 Barrel Brewing Co,large,1411 NW Flanders St,Portland,Oregon,97209-2620,United States,-122.6855056,45.5259786,5032241700,http://www.10barrel.com
ef970757-fe42-416f-931d-722451f1f59c,10 Barrel Brewing Co,large,1501 E St,San Diego,California,92101-6618,United States,-117.129593,32.714813,6195782311,http://10barrel.com
9f1852da-c312-42da-9a31-097bac81c4c0,10 Barrel Brewing Co - Bend Pub,large,62950 NE 18th St,Bend,Oregon,97701,United States,-121.2809536,44.0912109,5415851007,
ea4f30c0-bce6-416b-8904-fab4055a7362,10 Barrel Brewing Co - Boise,large,826 W Bannock St,Boise,Idaho,83702-5857,United States,-116.202929,43.618516,2083445870,http://www.10barrel.com
1988eb86-f0a2-4674-ba04-02454efa0d31,10 Barrel Brewing Co - Denver,large,2620 Walnut St,Denver,Colorado,80205-2231,United States,-104.9853655,39.7592508,7205738992,
1ecc330f-6275-42a5-b14e-00adbed62752,10 Torr Distilling and Brewing,micro,490 Mill St,Reno,Nevada,89502,United States,-119.7732015,39.5171702,7755307014,http://www.10torr.com
7531dbd8-afc9-4b5b-95bc-7ece7f2c0bf3,10-56 Brewing Company,micro,400 Brown Cir,Knox,Indiana,46534,United States,-86.627954,41.289715,6308165790,
5ae467af-66dc-4d7f-8839-44228f89b596,101 North Brewing Company,closed,1304 Scott St Ste D,Petaluma,California,94954-7100,United States,-122.665055,38.27029381,7077534934,http://www.101northbeer.com
4ffda196-dd59-44a5-9eeb-5f7fd4b58f5a,105 West Brewing Co,micro,1043 Park St,Castle Rock,Colorado,80109-1585,United States,-104.8667206,39.38269495,3033257321,http://www.105westbrewing.com
42aa37d5-8384-4ffe-8c81-7c982eff0384,10K Brewing,micro,2005 2nd Ave,Anoka,Minnesota,55303-2243,United States,-93.38952559,45.19812039,7633924753,http://10KBrew.com
232e8f62-9afc-45f5-b4bc-582c26b5c43b,10th District Brewing Company,micro,491 Washington St,Abington,Massachusetts,02351-2419,United States,-70.94594149,42.10591754,7813071554,http://www.10thdistrictbrewing.com
08f78223-24f8-4b71-b381-ea19a5bd82df,11 Below Brewing Company,micro,6820 Bourgeois Rd,Houston,Texas,77066-3107,United States,-95.5186591,29.9515464,2814442337,http://www.11belowbrewing.com
58293321-14ae-49d7-9a7b-08436c9e63a6,1188 Brewing Co,brewpub,141 E Main St,John Day,Oregon,97845-1210,United States,-118.9218754,44.4146563,5415751188,http://www.1188brewing.com
e5f3e72a-fee2-4813-82cf-f2e53b439ae6,12 Acres Brewing Company,micro,Unnamed Street,Killeshin,Laois,R93 X3X8,Ireland,-6.979343891,52.84930763,353599107299,https://12acresbrewing.ie/
d81ff708-b5d2-478f-af6a-6d40f5beb9ac,12 Gates Brewing Company,brewpub,80 Earhart Dr Ste 20,Williamsville,New York,14221-7804,United States,,,7169066600,http://www.12gatesbrewing.com
fb94830f-6196-4f59-9189-c9060b778085,12 West Brewing Company,micro,3000 E Ray Rd Bldg 6,Gilbert,Arizona,85296-7832,United States,,,6023395014,http://www.12westbrewing.com
0faa0fb2-fffa-416d-9eab-46f67477c8ef,12 West Brewing Company - Production Facility,micro,,Mesa,Arizona,85207,United States,-111.5860662,33.436188,,
e54c2f02-acd6-4172-861d-fcfa54c8701a,122 West Brewing Co,closed,2416 Meridian St,Bellingham,Washington,98225-2405,United States,-122.485982,48.7621709,3603063285,https://www.122westbrew.com/
d5cb896d-3e99-4e19-9693-5e06ce987e53,127 Brewing,micro,3090 Shirley Dr,Jackson,Michigan,49201-7010,United States,-84.43116792,42.28667212,5172581346,
06e9fffb-e820-45c9-b107-b52b51013e8f,12Degree Brewing,brewpub,820 Main St,Louisville,Colorado,80027-1865,United States,-105.1319826,39.9782443,3035791004,http://www.12degree.com
50521ef7-f543-4c5d-98b1-0d0ee1a2be01,12welve Eyes Brewing,micro,141 E 4th St Ste LL2,Saint Paul,Minnesota,55101-1639,United States,,,6514938106,http://www.12welveEyes.com
950180bd-29c9-46b3-ad0c-e6f09799ec7f,13 Below Brewery,micro,7391 Forbes Rd,Cincinnati,Ohio,45233-1013,United States,-84.70634815,39.12639764,5139750613,http://www.13belowbrewery.com
45119c56-345b-4adc-b481-c5cf7bfe98c4,13 Stripes Brewery,brewpub,"250 Mill St, Suite PW3101",Taylors,South Carolina,29687,United States,,,8643491430,http://www.13StripesBrewery.com
936c3d7e-5d54-4459-b72c-117cdda059b4,13 Virtues Brewing Co,brewpub,6410 SE Milwaukie Ave,Portland,Oregon,97202-5518,United States,-122.6487531,45.4762536,5032393831,http://www.13virtuesbrewing.com
5c53b314-ebab-4e3e-89be-e4139d9318ae,1323 R & D,micro,1323 Capital Blvd 1323 R and D,Raleigh,North Carolina,27603-1117,United States,,,9199775654,http://www.1323rnd.com
4788221a-a03b-458c-9084-4cadd69ade6d,14 Cannons Brewing Company,micro,31125 Via Colinas Ste 907,Westlake Village,California,91362-3974,United States,-118.802397,34.15334,8186996165,http://14cannons.com
b7b68d22-5045-4501-b9bf-ec94946eaffc,14 Lakes Brewery,micro,,Crosslake,Minnesota,56442,United States,,,2186924129,
4b677b60-fef1-42e2-90ef-dadc1bd7fb06,14er Brewing Company,proprietor,2801 Walnut St,Denver,Colorado,80205-2235,United States,-104.9839636,39.7614112,7207731437,http://www.14erBrewing.com
6c53984f-fac1-4ea7-9c44-44e25897c71a,14th Star Brewing,micro,133 N Main St Ste 7,Saint Albans,Vermont,05478-1735,United States,,,8025285988,http://www.14thstarbrewing.com
85192a9c-58a4-48c3-bd9d-496d09d22aa3,16 Lots Brewing,brewpub,753 Reading Rd,Mason,Ohio,45040-1303,United States,-84.3183801,39.3545967,5134863672,http://www.16lots.com
284b44f8-6ccb-4cd6-8d06-f2ad882a47c3,16 Mile Brewing Co,micro,413 S Bedford St,Georgetown,Delaware,19947-1849,United States,-75.37816436,38.6788938,3022538816,http://www.16milebrewery.com
ee6d39c6-092f-4623-8099-5b8643f70dbe,16 Stone Brewpub,brewpub,9542 Main St,Holland Patent,New York,13354,United States,-75.2565195,43.24211175,3158658500,http://www.16stonebrewpub.com
d35b40b0-a3ff-4878-a6ee-9caa2149b521,"1623 Brewing CO, llc",contract,1146 colonel Joshua Ct,Westminister,Maryland,21157,United States,,,,
84bd3b3c-bd2d-4e07-bc31-b43a8c8ebf4c,1717 Brewing Co,micro,322 E Court Ave,Des Moines,Iowa,50309-2015,United States,-93.6120353,41.5872267,5152437868,http://1717brewing.com
f41a0c47-ba9b-4547-bfed-fcbefe0fc74b,1718 Ocracoke Brewing,brewpub,1129 Irvin Garrish Hwy,Ocracoke,North Carolina,27960,United States,-75.97176063,35.10715368,2529282337,http://www.ocracokebrewing.com
84d621c4-81a5-44e6-aca7-1566c2e67cc0,1781 Brewing Company,micro,11109 Plank Rd,Spotsylvania,Virginia,22553-4258,United States,,,5408412598,
896f26a1-d80e-4790-9287-026a86c1799d,180 and Tapped,micro,2010 A State Ave,Coraopolis,Pennsylvania,15108,United States,-80.15020356,40.50984957,4127375273,http://www.180andtapped.com
46839a79-b7bf-4733-b91b-ce116d062a57,1817 Brewery,micro,100 B South Olive St,okolona,Mississippi,38860,United States,-88.750264,34.001703,6623055907,
1a1b2165-73ed-40aa-b89b-56794d140f22,1840 Brewing Company,micro,342 E Ward St,Milwaukee,Wisconsin,53207-1348,United States,-87.90606942,43.00436242,4142364056,http://www.1840brewing.com
fe6b9893-b93e-43d5-a9f6-3e0c89a3f13c,1850 Brewing Company,micro,,Mariposa,California,95338,United States,-119.9036592,37.570148,,http://www.1850restaurant.com
b51f3cdf-60ff-4ae1-94a7-76906c7d62eb,18th Street Brewery,micro,5725 Miller Ave,Gary,Indiana,46403-2871,United States,-87.26887786,41.59928343,,http://www.18thstreetbrewery.com
add7f978-942e-4d56-b209-c80837a51d69,18th Street Brewery,micro,5417 Oakley Ave,Hammond,Indiana,46320-1817,United States,-87.517422,41.61556796,,
dbde8235-2b55-4d8b-8b1c-438155abe104,1905 Brewing Company,micro,1301 S Chestnut St,Assumption,Illinois,62510-8504,United States,-89.0503635,39.5172564,2172549374,http://1905BrewingCompany.com
4f4b5b34-d572-4dff-a18f-47e507c073e6,1912 Brewing,micro,2045 N Forbes Blvd Ste 105,Tucson,Arizona,85745-1444,United States,-110.9927505,32.24673727,5202564851,http://www.1912brewing.com
4ccad9b9-f9cf-4d21-b6d5-ab005ee1532d,192 Brewing,micro,7324 NE 175th St,Kenmore,Washington,98028-2500,United States,-122.2415652,47.75670075,4254242337,http://www.192brewing.com
4a09f017-db8f-42e1-a8ec-a0cd81c28761,1940's Brewing Company,micro,1337 Lincoln Ave Unit 1,Holbrook,New York,11741-2275,United States,,,6315334838,http://www.1940sbrewingcompany.com
4dcaeaa3-d7cc-4016-9392-5bde4e3a8f4d,1st Republic Brewing Co,micro,39 River Rd Ste 6,Essex Junction,Vermont,05452-3879,United States,,,8028575318,http://www.1strepublic-homebrew.com
9046adec-ed04-4c60-8043-4a02e9e2dabc,2 Basset Brewery,micro,202 E Main St,White Sulphur Springs,Montana,59645-9081,United States,-110.9004865,46.54807609,4065472337,http://www.2bassetbrewery.com
8436b02b-9a06-474c-b5eb-8ff9aedf1f99,2 Dogz and A Guy Brewing,micro,228 Church St,Montrose,Pennsylvania,18801-1271,United States,-75.8800318,41.8336364,5704320069,http://2dogzandaguybrewing.com
2005a2bb-0f89-4520-8553-f79cf0b4c909,2 Feet Brewing Company,brewpub,80 Columbia St,Bangor,Maine,04401-6319,United States,-68.77283099,44.80012684,2075731979,http://www.2feetbrewing.com
6948c755-a504-42f9-88e8-d04d027731e5,2 Row Brewing,micro,6856 S 300 W,Midvale,Utah,84047-1083,United States,-111.9007652,40.5950202,8019878663,http://www.2rowbrewing.com
fb2460bb-d6bb-4690-a700-f0b5628cc7dd,2 Silos Brewing Company,micro,9925 Discovery Blvd,Manassas,Virginia,20109,United States,,,7034202257,http://www.2silosbrewing.com
836cb05e-ee8f-4798-859e-fe0bedb0186a,2 Tones Brewing Co.,micro,4539 E Broad St,Whitehall,Ohio,43213-1308,United States,-82.9118174,40.0030689,,http://www.2tonesbrewingco.com
5ec3b488-48bd-49a7-9828-05bd90195cd5,2 Tread Brewing Co,brewpub,1018 Santa Rosa Plz,Santa Rosa,California,95401-6399,United States,-122.7167729,38.4387767,4152330857,http://www.2treadbrewing.com
8624d11b-8593-49a8-89b4-c46a0f111cd7,2 Way Brewing Company,brewpub,18 W Main St,Beacon,New York,12508-2512,United States,-73.9809868,41.5082102,8452027334,http://www.2waybrewingcompany.com
5cda93ce-6b16-4374-9d43-bb4383be0187,2 Witches Winery and Brewing Company,micro,209 Trade St,Danville,Virginia,24541-3545,United States,-79.42125553,36.58590349,4345492739,http://www.2witcheswinebrew.com
64a48d9e-08e9-45e3-83ca-f00d24bb7e49,20 Corners Brewing LLC,brewpub,14148 NE 190th St Ste A,Woodinville,Washington,98072-8437,United States,-122.1517007,47.76864301,4253755223,http://www.20cornersbrewing.com
c018299b-db2d-438b-b58c-ecaa0f07a0df,210 Brewing Co,brewpub,3438 Stoluckquamish Ln,Arlington,Washington,98223-9056,United States,-122.18421,48.215096,3604749740,http://www.angelofthewind.com
00fdce16-e1dd-4678-87f2-45550f9083e1,212 Brewing Company,contract,21476 Route 23,Davenport,New York,13750,United States,,,2123779050,
46a8ed58-5d1a-413e-871e-d2d29d6d43f0,217 Brew Works,micro,217 South St S,Wilson,North Carolina,27893-4911,United States,-77.9120318,35.7227625,2529916959,
63baab9a-b561-4eff-8619-f95290a61b77,21st Amendment Brewery,regional,2010 Williams St Unit A,San Leandro,California,94577-2334,United States,-122.1772928,37.71130036,5105952111,http://www.21st-Amendment.com
8f9621dc-da98-4ddb-82a1-039c9e2b3224,21st Amendment Brewery Cafe,brewpub,563 2nd St,San Francisco,California,94107-1411,United States,-122.3925769,37.782448,4153690900,http://www.21st-amendment.com
84337872-75da-4cdd-9f8f-1e1691f21642,21st St Brewers Bar,brewpub,2017 Chouteau Ave,Saint Louis,Missouri,63103,United States,-90.213781,38.624291,3142416969,http://www.21stbrew.com
2711c5ad-83cb-4917-932e-b8bbf1a25ffb,23 Brewing Company / Lizzie B's Cafe,brewpub,2010 KY Route 321,Prestonsburg,Kentucky,41653-9103,United States,,,6068862844,http://www.23brewingcompany.com
e05dc493-284f-4ece-995e-19899398f077,238 Brewing Company,closed,10321 E Day Mt Spokane Rd,Mead,Washington,99021,United States,,,5092382739,http://www.238brewing.com
29c73154-9117-4f27-98e1-b5bb5f69c055,23rd Ave Brewery,micro,2313 S Jackson St,Seattle,Washington,98144-2340,United States,-122.301811,47.599163,2066792048,https://23rd-ave-brewery.square.site
c70c8ad5-4bfa-4b2a-a383-7e7d15e0baf9,23rd Street Brewery,brewpub,3512 Clinton Pkwy,Lawrence,Kansas,66047-2145,United States,-95.28093353,38.9429674,7858562337,http://www.brew23.com
6751228c-5373-4a54-8d68-72df6849a437,26 Degree Brewing Company,micro,2600 E Atlantic Blvd,Pompano Beach,Florida,33062-4940,United States,-80.1224169,26.2316338,9545326964,
d6e77d51-2fa2-44cb-89b3-c94bf1dc77df,28th State Brewing,planning,,Houston,Texas,77095-6933,United States,,,,https://www.instagram.com/28thstatebrew/?hl=en
7d13ee75-e7e3-4623-862a-43a18dd6a1ae,2C Family Brewing Co.,micro,1215 1st St S,Nampa,Idaho,83651-3957,United States,-116.559282,43.578989,2084753981,
5fdcc498-f9df-4fa5-b35d-487a59f0fecc,2Kids Brewing Company,micro,8680 Miralani Dr Ste 123,San Diego,California,92126-6391,United States,-117.137429,32.896584,8584805437,http://www.2kidsBrewing.com
be0ec266-d637-42e4-94ba-4ce21e456054,2nd Shift Brewing Co,brewpub,1601 Sublette Ave,Saint Louis,Missouri,63110-1924,United States,-90.280526,38.621943,6187910728,http://www.2ndshiftbrewing.com
fb8eee34-da8a-42b2-bc4c-77020024a7f0,2nd Story Brewing Company,brewpub,117 Chestnut St Frnt,Philadelphia,Pennsylvania,19106-4700,United States,,,2673145770,http://www.2ndstorybrewing.com/
3cf2698f-4193-4591-aab3-a8ef0fbedcab,2SP Brewing Company,micro,120 Concord Rd,Aston,Pennsylvania,19014-2909,United States,,,4844837860,http://www.2spbrewing.com
9fdb80f1-a96f-4dc4-80a2-5b0d9a246916,3 Beards Beer Company,contract,4 Main St,Williamsburg,Massachusetts,01096,United States,-72.7305059,42.3923659,6173837039,http://www.3beardsbeer.com
065200ec-51cf-4612-b1b9-61f7db489c3c,3 Daughters Brewing,micro,222 22nd St S,Saint Petersburg,Florida,33712-1240,United States,-82.6629721,27.76899022,7274956002,http://www.3dbrewing.com
60c00c0b-b797-4f6a-b442-3bfbaec156ca,3 Disciples Brewing,micro,,Sebastopol,California,95472-5937,United States,-122.8332502,38.3845125,7072287309,http://www.3disciplesbrewing.com/home
a1887b5a-0c21-43cf-9547-527b7c11dcf4,3 Freaks Brewing Co,micro,7140 E County Line Rd,Highlands Ranch,Colorado,80126-3926,United States,-104.9426656,39.5659575,7202990994,http://www.3freaksbrewery.com
a74744eb-ca98-43c5-9199-09df39f8b400,3 Iron Brewing Company,micro,898 Via Lata Ste A,Colton,California,92324-3920,United States,-117.3066993,34.05616889,9095334892,http://www.3ironbrewingco.com
1218736c-bfcf-4b95-b473-7399aaf60d1d,"3 Keys Brewing Company, LLC",brewpub,2505 Manatee Ave E,Bradenton,Florida,34208-2421,United States,-82.53393502,27.49645026,9412180396,http://www.3keysbrewing.com
ed387340-ea78-4f65-9de0-15e2da50371e,3 Nations Brewing,micro,2405 Squire Pl Ste 200,Farmers Branch,Texas,75234-4714,United States,-96.89883128,32.93044336,4696607184,http://www.threenationsbrewing.com
a8fda9a9-026b-4b15-86b9-62b4ccb126c1,3 Sheeps Brewing Co,micro,1837 North Ave,Sheboygan,Wisconsin,53083-4620,United States,-87.73006524,43.77384561,9209469715,http://www.3sheepsbrewing.com
5595bb24-e2b8-4a6e-9f0b-451fac8dd903,3 Sheets Brewery,micro,136 W 1st Ave,Albany,Oregon,97321,United States,,,5416190183,http://www.3sheetsbrewery.com
e2ddeea8-03d4-43e7-bfd0-d27797b9d016,3 Sons Brewing Co.,proprietor,236 N Federal Hwy,Dania,Florida,33004-2870,United States,-80.14361029,26.04800238,9546013833,http://www.3sonsbrewingco.com
bd8b76ca-a70a-4363-96cb-24f1d0118a74,3 Stars Brewing Co,micro,6400 Chillum Pl NW Ste B,Washington,District of Columbia,20012-2111,United States,,,2026700333,http://www.3starsbrewing.com
cb56e27e-d113-4f74-925a-69305a56d082,3 Trails Brewing Co,micro,111 N Main St ,Independence,Missouri,64050,United States,-94.41265,39.122385,8168866256,http://www.3trailsbrewing.com
6c5dabed-6a59-4610-abc9-b1e958393186,30 Mile Brewing Co.,closed,39 Ragged Rock Rd Unit 5,Old Saybrook,Connecticut,06475-1518,United States,,,8603395238,http://www.30milebrewingco.com
2f6062af-4d6f-42b2-b4ad-626cf01a1fec,300 Suns Brewing Company,brewpub,335 1st Ave Unit C,Longmont,Colorado,80501-5958,United States,,,,http://www.300sunsbrewing.com
3b0b5b9b-f6d8-49e3-8ebd-0bcef6939bcd,32 North Brewing Co,brewpub,8655 Production Ave Ste A,San Diego,California,92121-2258,United States,-117.1649842,32.88313237,(619) 363-2622,https://42northbrewing.com
a964a343-e4f1-40d8-9353-09ef9b74f513,34 Degree North Experiment Station,micro,4802 Main St,Shallotte,North Carolina,28470,United States,-78.38636517,33.97270364,,
098595c2-f606-40b4-9b49-195f73fb6fd6,350 Brewing Co,brewpub,7144 183rd St,Tinley Park,Illinois,60477-3933,United States,-87.79160288,41.55864726,7088257339,http://www.350brewing.com
63969ec8-b557-4c71-b993-ad00c99ab70e,360 Degree Brewing Company,micro,Bluebell Business Estate,Sheffield Park,East Sussex,TN22 3HQ,England,-0.00086,50.993912,1825722375,https://www.360degreebrewing.com/
55de8d28-4231-4497-8ff7-3031e7bb3be5,38 State Brewing,micro,8071 S Broadway Ste A,Littleton,Colorado,80122-2730,United States,,,7206383678,http://www.38statebrew.com
53305a0f-9b51-4f73-bf5e-88bb0439b216,380 Brewing Company,planning,,Clancy,Montana,59634,United States,,,2065796509,
dfa3f8fc-21cf-443d-ba8d-8adfc6873852,38Â°-75Â° Brewing,brewpub,2000 Coastal Highway STE 105,Rehoboth Beach,Delaware,19971,United States,-75.090191,38.7074994,3022278519,
842d193f-7a1b-4960-86f8-7d6614884005,3cross Fermentation Cooperative,micro,4 Knowlton Ave,Worcester,Massachusetts,01603,United States,-71.83057593,42.24364875,5086158195,http://www.3cross.coop
4f70ac94-eca5-4cec-8581-92ec5afdf4f2,3Halves Brewing Co,brewpub,110 E Kansas St,Liberty,Missouri,64068-2374,United States,-94.4190247,39.2461993,8164296886,http://www.3halvesbrewingco.com
694547f5-28fd-4363-bad6-03b6eaf0f1dd,3rd Degree Brewhouse,micro,1625 N Main St,Fuquay Varina,North Carolina,27526,United States,-78.794223,35.5914556,9192015457,http://www.facebook.com/3rddegreebrewhouse/
370fdc3b-55a0-43f0-a54e-f617a7cec7b8,3rd Planet Brewing,micro,120 Partin Dr N,Niceville,Florida,32578-2053,United States,,,8505029952,http://www.facebook.com/3rdplanetbrewing/
3c9354c5-4d21-40a8-8e53-8f2f9b5e043b,3rd Rock Brewing Company,micro,134 Industrial Park Dr,Trenton,North Carolina,28585-9593,United States,-77.36749285,35.06939877,2526319213,http://www.3rockbrew.com
2eed7840-ec52-48b5-b22e-d9d76bd01929,3rd Turn Brewing,micro,10408 Watterson Trl,Louisville,Kentucky,40299-3702,United States,-85.56656078,38.19322725,,http://www.3rdturnbrewing.com
781bda70-39b2-4f3f-9213-9d0f44c08991,3rd Wave Brewing Co,micro,501 N Bi State Blvd,Delmar,Delaware,19940-1106,United States,,,3029070423,http://www.3rdwavebrewingco.com
a00c1c11-dede-4d7f-a514-bd291b6db283,3TREE BREWERY,micro,3-19 Futabacho,Ibaraki,Osaka,567-0829,Japan,135.5780968,34.81744613,,https://3tree-brewery.jimdosite.com/
b72f2ce6-e062-404d-ac31-c1060db2d870,4 By 4 Brewing Company,micro,2811 E Galloway St Ste A,Springfield,Missouri,65804-4601,United States,-93.239889,37.147986,4178616400,http://www.4by4brewingcompany.com
ac2f41ed-e1e8-4586-aa78-253543db7714,4 Hands Brewing Co,regional,1220 S 8th St,Saint Louis,Missouri,63104-3610,United States,-90.19762012,38.61526593,3144361559,http://www.4handsbrewery.com
dc652569-19d7-4f63-a999-3e8d5d6798c1,4 Noses Brewing Company,micro,8855 W 116th Cir Ste 3,Broomfield,Colorado,80021-2521,United States,,,7204602797,http://4nosesbrewing.com
7c669ae6-460d-476b-bc56-0b4d566a152c,4 Stitch Brewing Co - Brewery & Taproom,taproom,16709 9th Ave SE,Mill Creek,Washington,98012-6309,United States,-122.21991381534,47.84671432549,4252247583,https://www.4stitchbrewing.com
b237e2d5-dabc-41f9-a3ff-2b4e3f3a9c8e,4 Stitch Brewing Co - Taproom & Kitchen,brewpub,5817 238th St SE Ste 3,Woodinville,Washington,98072-8669,United States,-122.15488674812,47.782473284418,4252866004,https://www.4stitchbrewing.com
d4c7fb43-6671-4597-8cdd-e938d751aca2,400 North Brewing,planning,,Sugarhill,Georgia,30518-7916,United States,,,4047911119,http://400northbrewing.com
9c3f919e-e6de-4e43-91cb-30f3e73ad591,406 Brewing Company,micro,"101 E Oak St,Â Ste D",Bozeman,Montana,59715-2967,United States,,,4065853745,http://www.406brewingcompany.com
b7f2ebb8-6764-4654-a98b-246724c8952a,411 Broadway Ales,planning,,Fresno,California,93721-2801,United States,-119.7088613,36.7295295,5412706076,
ef60f8cf-0fdc-4ea1-aa94-09e1f869176b,412 Brews,brewpub,706 Island Ave,Mc Kees Rocks,Pennsylvania,15136-3287,United States,,,,http://www.412brews.com
dad10840-28ab-4dcf-9005-bf2cc2665b5a,42 North Brewing Company,brewpub,25 Pine St,East Aurora,New York,14052-1827,United States,-78.607989,42.769311,7168057500,http://www.42northbrewing.com
52dd0878-928b-4b47-b7fa-602f140592ed,4204 Main Street Brewing Co,brewpub,4204 W Main St,Belleville,Illinois,62226,United States,-90.02053343,38.53796122,6184167261,
1d3084b5-c9bc-4380-9862-14e837b82bb9,45 Degree Brewhouse,micro,10421 E Sprague Ave,Spokane Valley,Washington,99206-3629,United States,-117.264473,47.657478,5092413281,http://45degreebrewhouse.com
eb3d0c66-bbe8-495d-a876-924f0c0cf509,450 North Brewing Company @ Simmons Winery,brewpub,8111 E 450 N,Columbus,Indiana,47203-8106,United States,,,8125460091,http://www.450northbrewing.com
6b892c61-269b-453f-acd1-b79491b0ef0b,47 Hills Brewing Co,brewpub,137 S Linden Ave,South San Francisco,California,94080-6410,United States,-122.4136168,37.64425595,6508678476,http://47hillsbrewingcompany.com
cd97aeab-a499-4c95-b20b-881bfe3ed6c8,49th State Brewing Co,micro,248.4 Parks Hwy 5 Mile,Healy,Alaska,99743,United States,-149.017877,63.864759,9076832739,https://www.49statebrewing.com/denali
eaa4afea-bcb5-434c-839e-ef48fe8811d0,49th State Brewing Co - Anchorage,brewpub,717 W 3rd Ave,Anchorage,Alaska,99501-2104,United States,-149.8958196,61.2197366,9076832739,http://www.49statebrewing.com/
dbf0d7e7-4e2c-4574-9dee-791d95496811,4B's Brewery,brewpub,215 W Main St,Cedaredge,Colorado,81413-3339,United States,-107.925782,38.900614,9708567762,http://www.4bsbrewery.com
aea0a6f9-557e-4907-be23-d80737a071e4,4J Brewing Company,micro,1348 Cedar Post Ln.,Houston,Texas,77055,United States,,,7136780776,https://4jbrewingcompany.com
53efe9e9-dbb3-4c98-ab77-61515abef2a9,4kd Crick Brewery,brewpub,211 Carpenter Rd,Defiance,Ohio,43512-1718,United States,-84.341647,41.296252,4199562863,http://Www.4kdcrickbrewery.com
760e8395-f2a2-4161-9bf1-c72ed1aa6ae3,4th Tap Brewing Cooperative,micro,10615 Metric Blvd,Austin,Texas,78758-4520,United States,-97.7118913,30.3852024,5129089817,
d8b4ad26-346b-40dd-8215-b0e89ace23e2,5 Alarm Brewing Co,micro,211 W Main St,Lake Mills,Iowa,50450,United States,-93.53398788,43.41926615,6415922739,
c17a3e56-4d4e-405e-a21b-85f415903674,5 Lakes Brewing Co.,brewpub,1638 142nd Ave,Dorr,Michigan,49323-9312,United States,-85.70445518,42.72497157,6163599555,http://www.5lakesbrewing.com
75eff8e1-7c25-483a-a2b2-49ecdbf16d31,5 Lamps Brewery,regional,84-87 Camden St.,Dublin,Dublin,D02 DH36,Ireland,-6.26585621,53.33596635,,https://the5lampsbrewery.com/home/
257e9aac-7dbe-4656-b366-9d8a94c49d58,5 North Brewing Company,closed,6501 N Cedar Rd,Spokane,Washington,99208,United States,-117.4328496,47.71758683,5093217818,http://5northbrewingcompany.com/
f927d8d6-3151-4073-9d20-410ca617853e,5 Rabbit Cerveceria Inc,micro,6398 W 74th St,Chicago,Illinois,60638-6129,United States,-87.6572069,41.7595502,3128959591,http://www.5rabbitbrewery.com
5c99b790-e00d-4ca6-86a5-37723f728690,5 Rights Brewing Co,micro,1514 3rd St,Marysville,Washington,98270,United States,-122.1762906,48.05156015,4253341026,http://www.5rightsbrewing.com
2af85509-aee5-46bc-ab1a-fd9b8b0026d4,5 Rivers Brewing LLC,planning,,Spanish Fort,Alabama,36527-3161,United States,-87.9152724,30.6749127,2516897483,http://5riversbrewing.com
80c395e8-28c8-460a-9cc5-721fcc22410f,5 Seasons Brewing Co - Prado,brewpub,5600 Roswell Rd,Sandy Springs,Georgia,30342-1150,United States,-84.3796711,33.9078086,4042555911,http://www.5seasonsbrewing.com
baad8dd7-b295-480c-8f64-e499562a3662,5 Seasons Brewing Co - Westside,brewpub,1000 Marietta St NW Ste 204,Atlanta,Georgia,30318-0683,United States,,,4048753232,http://www.5seasonsbrewing.com
83d47922-0a23-4b85-9c1c-d50b9135d64a,5 Stones Artisan Brewery,micro,11335 Farm To Market Road 1863,New Braunfels,Texas,78132,United States,-98.232345,29.711365,2103808215,
fafc2e23-c3bf-46d3-87c0-00e92209269b,515 Brewing Co,micro,7700 University Ave,Clive,Iowa,50325-1271,United States,-93.7228408,41.599992,5156614615,http://www.515brewing.com
7e12d827-22dc-4d07-8715-8192c9680b23,5150 Brewing At The Brass Tap Rocklin,micro,5150 Commons Dr Ste 101,Rocklin,California,95677-3925,United States,-121.207331,38.8047402,9162462729,http://www.brasstaprocklin.com
132540a2-23c8-4720-8c58-31292d264c4a,51st State Brewing Company,brewpub,115 Harding Ave,Kingsford,Michigan,49802-3815,United States,-88.08819,45.808408,9068282167,http://www.51ststatebrewingcompany.com
5858b701-9e27-44e6-8ab8-b950b72c4181,51st Ward Beer Company,contract,323 N Washington St,Westmont,Illinois,60559-1512,United States,-87.981157,41.804494,7732205899,
4d878d25-a8fb-49e7-93da-56d229bf46ff,54-40 Brewing Company,brewpub,3801 S Truman Rd Ste 1,Washougal,Washington,98671-2589,United States,-122.3269349,45.56577849,3609077062,http://www.54-40brewing.com
126f87c3-1c6d-4ff0-b35c-c8dfa9a8e1b4,550 Brewing,proprietor,119 E Chuska St,Aztec,New Mexico,87410-2110,United States,-107.9950235,36.8213739,5054861094,http://Www.550brew.com
4a4baf4f-921c-46c0-9130-afcc4ce4f4d2,559 Local Brewing,micro,608 4th St,Clovis,California,93612-1183,United States,-119.7017487,36.82517171,5594731875,http://www.fresnobrewingcompany.com
b0d5d69d-b439-44a6-ab3e-0cbd15658dc7,56 Brewing,micro,3055 Columbia Ave NE Ste 102,Minneapolis,Minnesota,55418-1860,United States,,,6124040056,http://www.56brewing.com
f4a902c1-e5a6-43da-b3e4-a1ffc97d31a9,5770 Brewery,micro,303A W Main St,Teutopolis,Illinois,62467-1355,United States,-88.47806652,39.13142194,6183397841,http://www.5770brewery.com
90d1fa86-77d7-4a21-9818-e338fa6fdb96,583 양조장(583 Brewery),brewpub,"583-8, Uiam-ro",Jangsu-gun,Jeollabukdo,55621,South Korea,127.6205123,35.68271721,063-353-5515,http://www.583beer.modoo.at
eaf55668-8444-4e4f-80c2-b9f32f7e4d83,5th Element Brewing,planning,,Leander,Texas,78641-4009,United States,,,9156378199,
cc8de428-9663-466c-bae8-73ad9edf0892,5th Line Brewing Co,micro,1015 E Lincoln Ave Ste 106,Yakima,Washington,98901-2534,United States,-120.4930458,46.61136701,5093676300,https://5thlinebrewing.com/
849d5961-83c5-4115-9ae4-c0e93c8d3a7f,5x5 Brewing Co.,planning,,Mission,Texas,78572-6215,United States,,,9565291353,http://www.5x5brewing.com
e2bb50c4-260f-4f42-8306-392f7bd5f4ba,6 & 40 Brewery/Taproom,planning,,Lakewood,Colorado,80215-5548,United States,-105.1100582,39.6311085,3032325347,http://www.tomsbrewshop.com
e5992621-3c91-4968-b913-85972aa66fbb,"6 Bears & A Goat Brewing Company, LLC",brewpub,1140 International Pkwy,Fredericksburg,Virginia,22406-1126,United States,,,54035690562,http://www.6bgbrewingco.com
76ee21a3-d4bd-4526-9ef8-5a23a4507566,6 Bridges Brewing,planning,,Johns Creek,Georgia,30097,United States,,,7708460292,http://www.sixbridgesbrewing.com
6f431fe7-b136-444b-84e3-3a2042903d93,6 Degrees of Separation,brewpub,35 Main St,Ossining,New York,10562-4662,United States,-73.86768188,41.15866213,9144325969,http://www.6degreesbp.com
ddf69cff-978e-47b6-b42e-75f102418bd0,603 Brewery,micro,12 Liberty Dr Unit 7,Londonderry,New Hampshire,03053-2286,United States,,,6036307745,http://www.603brewery.com
62871bbc-a963-4c09-9eff-eb36ade49fd7,608 Brewing Company,micro,83 Copeland Ave,La Crosse,Wisconsin,54603-3403,United States,-91.249927988566,43.825963955898,,http://www.608brewingcompany.com
f3e9ba4b-0246-44ac-9170-f095d19e8d64,612 Brew,micro,945 Broadway St NE,Minneapolis,Minnesota,55413-1471,United States,-93.2062058,45.000631,6129648939,http://www.612brew.com
af6cb069-b61a-4c69-8fd2-0a5f87c11a17,6th and La Brea,brewpub,600 South La Brea Ave,Los Angeles,California,90036,United States,-118.3440213,34.0730485,,http://www.6thlabrea.com
6a928a00-bf8e-4481-ae27-a2a5b14f56e2,7 Devils Brewing Co,brewpub,247 S 2nd St,Coos Bay,Oregon,97420-1642,United States,-124.2147508,43.36654751,5418083738,http://www.7devilsbrewery.com
8824022a-0fd9-4727-b6fa-b7aaf65eb043,7 Hermits Brewing Company,brewpub,PO Box 3186,Eagle,Colorado,81631-3186,United States,,,9704714979,http://www.7hermitsbrewing.com
e861ea88-9815-48a0-84ba-d2a1929178e7,7 Hills Brewing Company,brewpub,1085 Washington St,Dubuque,Iowa,52001-4932,United States,-90.6635263,42.5045556,5635878306,http://www.7hillsbrew.com
4e84a8d0-0d52-431e-a57a-da8977625bd2,7 Locks Brewing,micro,12227 Wilkins Ave,Rockville,Maryland,20852-1833,United States,,,3018417123,http://www.7locksbrewing.com
84c84db6-1120-4106-a5d3-fd65b9d7303d,7 Mile Brewery,micro,3156 Route 9 South Ste 1-2,Rio Grande,New Jersey,08242,United States,,,6093657777,http://www.7milebrew.com
745b65a8-d682-465c-a418-0188ce5878c2,7 Seas Brewing Co,micro,2101 Jefferson Ave,Tacoma,Washington,98402-1519,United States,-122.4390379,47.242614,2535727771,http://www.7seasbrewing.com
e062c040-4ff9-46f1-9f3d-172626694cb0,7 Seas Brewing Co - Gig Harbor,taproom,2905 Harborview Dr,Gig Harbor,Washington,98335-1910,United States,-122.577347,47.328217,2535148129,https://www.7seasbrewing.com/gig-harbor
a1199657-e4a9-496b-88c3-999f9e7e97e9,7 Sins Brewery,micro,10593 W Main Rd,Ripley,New York,14775-9746,United States,-79.7497349,42.24869073,7165812090,http://www.7sinsbrewery.com
a3a1eac7-b858-4bdd-81ac-c2099b717da2,7 Sisters Brewing Co,brewpub,181 Tank Farm Rd Ste 110,San Luis Obispo,California,93401-7082,United States,-120.6706375,35.2467278,8058687133,http://www.7sistersbrewing.com
3f3220f8-75f8-4fea-a5a4-289aa3267f11,"718BrewCafe, LLP",brewpub,718 Market St,Metropolis,Illinois,62960-1634,United States,-88.73129158,37.15373334,6185247180,http://www.718BrewCafe.com
c00f57cf-acdd-46da-9269-d182cb87a7e4,734 Brewing Company,micro,15 E Cross St,Ypsilanti,Michigan,48198,United States,-83.61103475,42.24586784,7346496453,
66a91db6-7d2a-4d67-a720-7f924cae3571,7th Settlement Brewery,brewpub,47 Washington St,Dover,New Hampshire,03820-3877,United States,-70.8728379,43.1953787,6033731001,http://www.7thsettlement.com
c7b3260a-b441-4dc8-958f-34c045e26f22,7th Wave Brewing,micro,120 N Meadows Rd Ste 8,Medfield,Massachusetts,02052-1594,United States,,,6176453397,http://www.7thwavebrewing.com
c179a049-9988-4640-821d-ddf349cdd87e,7venth Sun Brewery,micro,1012 Broadway,Dunedin,Florida,34698-5762,United States,,,7277333013,http://www.7venthsun.com
4679ff59-8ef6-4443-b6ec-f58232c6b7d7,7venth Sun Tampa,micro,6809 N Nebraska Ave,Tampa,Florida,33604-5660,United States,-82.4500207,27.9495902,8132315900,
c6a766f9-a187-4e5b-9519-6c737ce0cde5,8 Bit Brewing Company,brewpub,26755 Jefferson Ave Ste F,Murrieta,California,92562-6941,United States,-117.1762542,33.53033448,9516772322,http://www.8bitbrewerycompany.com
eef94d73-65e8-4d94-b1de-0d4b45efe090,8-Bit Aleworks,micro,1050 N Fairway Dr Bldg F Ste 10,Avondale,Arizona,85323-5206,United States,,,6239251650,http://www.8-bitaleworks.com
745272b9-5d04-4468-b1f7-e76a75c22de9,81 Artisan,micro,Chilgrove Road,Chichester,West Sussex,PO18 9HP,England,-0.81111,50.89212,7990035736,https://81artisan.com/
783c5daa-ea5c-4462-836e-c2846ad3ff4e,81Bay Brewing Company,micro,4465 W Gandy Blvd Ste 600,Tampa,Florida,33611-3379,United States,,,8133722739,http://81baybrewco.com
187f0cfc-1433-4d8c-89c0-5b4151504a71,841 Brewhouse,brewpub,841 E Milwaukee St,Whitewater,Wisconsin,53190-2126,United States,-88.71427344,42.8323014,2624738000,
3055793c-9330-4fe1-958b-fef6d2a0e057,8one8 Brewing Company,micro,8951 de Soto Ave,Canoga Park,California,91304-5901,United States,-118.5885323,34.2218019,8188352286,http://www.818brewing.com
2d880e85-5b0f-447b-b1b2-5bcae8a4b130,8th Street Ale Haus,brewpub,1132 N 8th St,Sheboygan,Wisconsin,53081-3402,United States,-87.71305702,43.75674392,9202087540,http://www.sheboyganalehaus.com
1682e94f-73ba-4035-93be-1fb28bb2cee7,8th Ward Brewing Company,planning,,Poughkeepsie,New York,12603-3401,United States,,,,
c2bc693f-906a-46a0-a5f9-82eab2d2845b,8th Wonder Brewery,micro,2202 Dallas St,Houston,Texas,77003-3519,United States,-95.3559402,29.7487783,7133970072,http://www.8thwonderbrew.com
a0a230f6-17b2-4460-8eca-61e57be53ed5,9 White Deer Brewery,micro,Ballymakeera,Macroom,Cork,P12 E277,Ireland,-9.146507143,51.936249,35302627110,http://www.9whitedeer.ie/
2b067eab-e0b0-46b6-aaea-e40a62cf632f,903 Brewers,micro,1718 S Elm St,Sherman,Texas,75090-8725,United States,-96.60698055,33.61788732,2142438090,http://www.903brewers.com
de6341a8-881b-4d9f-9335-5e9203e8a2c3,927 Beer Company,micro,821 Cornwall St,Cambria,California,93428-2434,United States,-121.0985408,35.5666725,8052035265,http://www.cambriabeerco.com
de63f5c7-c340-4095-a302-f35ab8ac7179,93 Octane Brewery,micro,1825 Lincoln Highway,Saint Charles,Illinois,60174-4591,United States,-88.333625900834,41.898851100486,6305490332,http://www.93octanebrewery.com
b4e012c5-0f36-4d0a-a40b-cbcb29c7ceed,95ate5 Brewpub,brewpub,9585 N Industrial Dr,Saint John,Indiana,46373,United States,-87.46380305,41.44400246,2193656506,http://www.95ate5.com
42598f85-f02e-474c-9154-0aa4f1d932be,9th Hour Brewing Company LLC,planning,,Spring Grove,Illinois,60081-9459,United States,,,,
9aeccd09-8884-4f0e-93f4-c44dacd246aa,A Homestead Brew,micro,26685 486th Ave,Valley Springs,South Dakota,57068-7309,United States,-96.49421923,43.51733014,6055535015,http://www.ahomesteadbrew.com
88a7ac77-a52b-4496-91df-b41e5831a568,A Little Madness Brewing Company,planning,,Pensacola,Florida,32514-8122,United States,,,,http://www.ALittleMadnessBrewingCompany.com
5b627789-ff7e-4890-a7cf-24572bf547a2,Aardwolf Brewing Company,micro,1461 Hendricks Ave,Jacksonville,Florida,32207-8622,United States,-81.6545197,30.3108962,9043010755,http://www.aardwolfbrewing.com
7918a6dd-08d0-4157-a841-01b20a9a7a4c,Abandon Brewing,micro,2994 Merritt Hill Rd,Penn Yan,New York,14527-8938,United States,,,5852093276,http://www.abandonbrewing.com
5a7b05f9-bf7b-49a2-a1de-0c1fe01b9374,Abandoned Building Brewery,micro,142 Pleasant St Unit 103A,Easthampton,Massachusetts,01027-2805,United States,,,4132827062,http://www.abandonedbuildingbrewery.com
9c7b9f2a-6deb-44a1-9b3e-f83952a4db38,Abbey Brewing Co,contract,1115 16th St,Miami Beach,Florida,33139-2441,United States,-80.1402943,25.7890381,3055388110,
9c5acc37-15fa-4838-91ee-47bf27a94777,"Abbey Brewing Company, LLC",micro,215 W. Alicante Rd,Santa Fe,New Mexico,87505,United States,-105.9465207,35.66555826,5056706802,http://www.abbeybrewing.biz
30d8f77b-aeec-4435-a280-16bacd1b1c97,Aberrant Ales,brewpub,219 W Grand River Ave,Howell,Michigan,48843,United States,-83.93094539,42.60773722,5175188699,http://www.aberrantales.com
b161916f-3f69-4f16-8059-eef9eee6877c,Abide Brewing Company,micro,110 Werz Industrial Blvd Ste 130,Newnan,Georgia,30263-5802,United States,-84.76356641,33.40257035,6789726747,http://www.abidebrewing.com
e2fa853c-ca91-4043-878d-0bcee9900ea3,Abigaile,brewpub,1301 Manhattan Ave,Hermosa Beach,California,90254-3666,United States,-118.4048656,33.8734519,3107988227,http://abigailrestaurant.com
c074ba4c-0b31-4344-a85a-7930df7fb410,Abita Brewing Co,regional,166 Barbee Rd,Covington,Louisiana,70433-8651,United States,-90.056477,30.481981,9858933143,http://www.abita.com
